0 FENGYUN 1C DEB
1 33661U 99025DEW 13280.59123477  .00000493  00000-0  53999-3 0  3488
2 33661 098.3989 324.2322 0253469 114.5134 038.5866 13.63086706278400
0 FENGYUN 1C DEB
1 33661U 99025DEW 13285.55198314  .00000595  00000-0  64572-3 0  3494
2 33661 098.4037 328.5201 0253374 101.3673 261.6221 13.63092996279082
0 FENGYUN 1C DEB
1 33661U 99025DEW 13290.64207980  .00000742  00000-0  79664-3 0  3504
2 33661 098.3976 332.9168 0252849 088.0391 039.3549 13.63102299279775
